{
  "casablanca": [
    { "name": "Casa Port", "nameAr": "ميناء الدار البيضاء", "lat": 33.5992, "lng": -7.6192 },
    { "name": "Morocco Mall", "nameAr": "موروكو مول", "lat": 33.5753, "lng": -7.7061 },
    { "name": "Hassan II Mosque", "nameAr": "مسجد الحسن الثاني", "lat": 33.6080, "lng": -7.6324 },
    { "name": "Technopark", "nameAr": "تكنوبارك", "lat": 33.5504, "lng": -7.6534 },
    { "name": "Maarif", "nameAr": "المعاريف", "lat": 33.5768, "lng": -7.6366 },
    { "name": "Anfa Place Shopping Center", "nameAr": "أنفا بلاس", "lat": 33.5983, "lng": -7.6644 },
    { "name": "Twin Center", "nameAr": "التوأم سنتر", "lat": 33.5878, "lng": -7.6324 },
    { "name": "Casablanca Finance City", "nameAr": "الدار البيضاء المالية", "lat": 33.5670, "lng": -7.6600 },
    { "name": "Place des Nations Unies", "nameAr": "ساحة الأمم المتحدة", "lat": 33.5954, "lng": -7.6186 },
    { "name": "Parc de la Ligue Arabe", "nameAr": "حديقة الجامعة العربية", "lat": 33.5870, "lng": -7.6240 },
    { "name": "Quartier Habous", "nameAr": "حي الحبوس", "lat": 33.5750, "lng": -7.6050 },
    { "name": "Cathédrale du Sacré-Cœur", "nameAr": "كاتدرائية القلب المقدس", "lat": 33.5910, "lng": -7.6210 },
    { "name": "Villa des Arts", "nameAr": "فيلا الفنون", "lat": 33.5880, "lng": -7.6310 },
    { "name": "Museum of Moroccan Judaism", "nameAr": "متحف اليهودية المغربية", "lat": 33.5410, "lng": -7.6520 },
    { "name": "La Corniche", "nameAr": "الكورنيش", "lat": 33.5960, "lng": -7.6650 },
    { "name": "Ain Diab Beach", "nameAr": "شاطئ عين الذئاب", "lat": 33.5850, "lng": -7.6950 },
    { "name": "Derb Sultan", "nameAr": "درب السلطان", "lat": 33.5650, "lng": -7.6050 },
    { "name": "Gauthier", "nameAr": "ڭوتيي", "lat": 33.5890, "lng": -7.6290 },
    { "name": "Palais Royal", "nameAr": "القصر الملكي", "lat": 33.5760, "lng": -7.6010 },
    { "name": "Central Market", "nameAr": "السوق المركزي", "lat": 33.5940, "lng": -7.6140 },
    { "name": "L'Oasis Station", "nameAr": "محطة الواحة", "lat": 33.5550, "lng": -7.6340 },
    { "name": "Casa Voyageurs Station", "nameAr": "محطة الدار البيضاء المسافرين", "lat": 33.5890, "lng": -7.5920 },
    { "name": "Mohammed V International Airport", "nameAr": "مطار محمد الخامس الدولي", "lat": 33.3675, "lng": -7.5898 },
    { "name": "Sindibad Park", "nameAr": "منتزه سندباد", "lat": 33.5820, "lng": -7.6850 },
    { "name": "Club des Pins", "nameAr": "نادي الصنوبر", "lat": 33.5990, "lng": -7.6580 },
    { "name": "Sidi Maarouf", "nameAr": "سيدي معروف", "lat": 33.5350, "lng": -7.6450 },
    { "name": "Bouskoura Forest", "nameAr": "غابة بوسكورة", "lat": 33.4650, "lng": -7.6150 },
    { "name": "Tamaris", "nameAr": "تماريس", "lat": 33.5250, "lng": -7.8250 },
    { "name": "Mohammedia", "nameAr": "المحمدية", "lat": 33.6850, "lng": -7.3850 },
    { "name": "Mediouna", "nameAr": "مديونة", "lat": 33.4550, "lng": -7.5150 },
    { "name": "Dar Bouazza", "nameAr": "دار بوعزة", "lat": 33.5150, "lng": -7.8150 },
    { "name": "Zenata", "nameAr": "زناتة", "lat": 33.6350, "lng": -7.4950 },
    { "name": "Tit Mellil", "nameAr": "تيط مليل", "lat": 33.5550, "lng": -7.4750 },
    { "name": "Nouaceur", "nameAr": "النواصر", "lat": 33.3550, "lng": -7.5950 },
    { "name": "Berrechid", "nameAr": "برشيد", "lat": 33.2650, "lng": -7.5850 }
  ]
}
